{"type": "FeatureCollection", "features": [ {"type": "Feature", "properties": {"norad_id": 37530, "name": "COSMOS 2251 DEB", "group": "cosmos-2251-debris", "lat": 65.11786473292689, "lon": 109.657558609575, "alt_km": 766.9018898469594, "timestamp": "2025-12-15T22:44:29.328190+00:00", "meta": {"OBJECT_NAME": "COSMOS 2251 DEB", "OBJECT_ID": "1993-036BNK", "EPOCH": "2025-12-13T05:02:01.167072", "MEAN_MOTION": 14.34504437, "ECCENTRICITY": 0.00258213, "INCLINATION": 74.0355, "RA_OF_ASC_NODE": 332.7814, "ARG_OF_PERICENTER": 34.4483, "MEAN_ANOMALY": 341.4849, "EPHEMERIS_TYPE": 0, "CLASSIFICATION_TYPE": "U", "NORAD_CAT_ID": 37530, "ELEMENT_SET_NO": 999, "REV_AT_EPOCH": 85239, "BSTAR": 0.00034742606, "MEAN_MOTION_DOT": 9.57e-06, "MEAN_MOTION_DDOT": 0}, "tle": {"line1": "1 37530U 93036BNK 25347.20973573  .00000957  00000+0  34743-3 0  9990", "line2": "2 37530  74.0355 332.7814 0025821  34.4483 341.4849 14.34504437852391"}}, "geometry": {"type": "Point", "coordinates": [109.657558609575, 65.11786473292689]}}, {"type": "Feature", "properties": {"norad_id": 37532, "name": "COSMOS 2251 DEB", "group": "cosmos-2251-debris", "lat": -18.863888522690633, "lon": -155.83145574707078, "alt_km": 745.413551356919, "timestamp": "2025-12-15T22:44:29.328201+00:00", "meta": {"OBJECT_NAME": "COSMOS 2251 DEB", "OBJECT_ID": "1993-036BNM", "EPOCH": "2025-12-14T09:22:45.259968", "MEAN_MOTION": 14.42410404, "ECCENTRICITY": 0.00160101, "INCLINATION": 74.0496, "RA_OF_ASC_NODE": 212.6604, "ARG_OF_PERICENTER": 313.2255, "MEAN_ANOMALY": 226.6563, "EPHEMERIS_TYPE": 0, "CLASSIFICATION_TYPE": "U", "NORAD_CAT_ID": 37532, "ELEMENT_SET_NO": 999, "REV_AT_EPOCH": 84939, "BSTAR": 0.00027461522, "MEAN_MOTION_DOT": 8.83e-06, "MEAN_MOTION_DDOT": 0}, "tle": {"line1": "1 37532U 93036BNM 25348.39080162  .00000883  00000+0  27462-3 0  9994", "line2": "2 37532  74.0496 212.6604 0016010 313.2255 226.6563 14.42410404849399"}}, "geometry": {"type": "Point", "coordinates": [-155.83145574707078, -18.863888522690633]}}, {"type": "Feature", "properties": {"norad_id": 37533, "name": "COSMOS 2251 DEB", "group": "cosmos-2251-debris", "lat": 72.52151364023844, "lon": -108.74882375095498, "alt_km": 951.1625880956544, "timestamp": "2025-12-15T22:44:29.328211+00:00", "meta": {"OBJECT_NAME": "COSMOS 2251 DEB", "OBJECT_ID": "1993-036BNN", "EPOCH": "2025-12-10T19:55:37.417152", "MEAN_MOTION": 14.12152288, "ECCENTRICITY": 0.01580439, "INCLINATION": 74.0697, "RA_OF_ASC_NODE": 195.1706, "ARG_OF_PERICENTER": 252.2523, "MEAN_ANOMALY": 106.1316, "EPHEMERIS_TYPE": 0, "CLASSIFICATION_TYPE": "U", "NORAD_CAT_ID": 37533, "ELEMENT_SET_NO": 999, "REV_AT_EPOCH": 62894, "BSTAR": 0.0019185157, "MEAN_MOTION_DOT": 3.939e-05, "MEAN_MOTION_DDOT": 0}, "tle": {"line1": "1 37533U 93036BNN 25344.83029418  .00003939  00000+0  19185-2 0  9994", "line2": "2 37533  74.0697 195.1706 0158043 252.2523 106.1316 14.12152288628948"}}, "geometry": {"type": "Point", "coordinates": [-108.74882375095498, 72.52151364023844]}}, {"type": "Feature", "properties": {"norad_id": 37535, "name": "COSMOS 2251 DEB", "group": "cosmos-2251-debris", "lat": 0.6061209125596027, "lon": -112.78371921745857, "alt_km": 683.1301390618682, "timestamp": "2025-12-15T22:44:29.328221+00:00", "meta": {"OBJECT_NAME": "COSMOS 2251 DEB", "OBJECT_ID": "1993-036BNQ", "EPOCH": "2025-12-15T07:25:57.216000", "MEAN_MOTION": 14.58477128, "ECCENTRICITY": 0.00276728, "INCLINATION": 74.0243, "RA_OF_ASC_NODE": 68.6045, "ARG_OF_PERICENTER": 207.2825, "MEAN_ANOMALY": 224.3264, "EPHEMERIS_TYPE": 0, "CLASSIFICATION_TYPE": "U", "NORAD_CAT_ID": 37535, "ELEMENT_SET_NO": 999, "REV_AT_EPOCH": 85362, "BSTAR": 0.00052687206, "MEAN_MOTION_DOT": 2.43e-05, "MEAN_MOTION_DDOT": 0}, "tle": {"line1": "1 37535U 93036BNQ 25349.30969000  .00002430  00000+0  52687-3 0  9993", "line2": "2 37535  74.0243  68.6045 0027672 207.2825 224.3264 14.58477128853628"}}, "geometry": {"type": "Point", "coordinates": [-112.78371921745857, 0.6061209125596027]}}, {"type": "Feature", "properties": {"norad_id": 37537, "name": "COSMOS 2251 DEB", "group": "cosmos-2251-debris", "lat": 48.40437372653488, "lon": 60.374586280194556, "alt_km": 761.98224471083, "timestamp": "2025-12-15T22:44:29.328231+00:00", "meta": {"OBJECT_NAME": "COSMOS 2251 DEB", "OBJECT_ID": "1993-036BNS", "EPOCH": "2025-12-11T11:15:11.696832", "MEAN_MOTION": 14.37489039, "ECCENTRICITY": 0.00502138, "INCLINATION": 74.0122, "RA_OF_ASC_NODE": 267.468, "ARG_OF_PERICENTER": 48.0201, "MEAN_ANOMALY": 312.5213, "EPHEMERIS_TYPE": 0, "CLASSIFICATION_TYPE": "U", "NORAD_CAT_ID": 37537, "ELEMENT_SET_NO": 999, "REV_AT_EPOCH": 85015, "BSTAR": 0.0003879169, "MEAN_MOTION_DOT": 1.152e-05, "MEAN_MOTION_DDOT": 0}, "tle": {"line1": "1 37537U 93036BNS 25345.46888538  .00001152  00000+0  38792-3 0  9995", "line2": "2 37537  74.0122 267.4680 0050213  48.0201 312.5213 14.37489039850156"}}, "geometry": {"type": "Point", "coordinates": [60.374586280194556, 48.40437372653488]}}, {"type": "Feature", "properties": {"norad_id": 37546, "name": "COSMOS 2251 DEB", "group": "cosmos-2251-debris", "lat": -15.39246590569526, "lon": 87.1523361856594, "alt_km": 633.3615392154024, "timestamp": "2025-12-15T22:44:29.328241+00:00", "meta": {"OBJECT_NAME": "COSMOS 2251 DEB", "OBJECT_ID": "1993-036BPB", "EPOCH": "2025-12-13T15:40:44.550624", "MEAN_MOTION": 14.80580134, "ECCENTRICITY": 0.00056627, "INCLINATION": 74.0221, "RA_OF_ASC_NODE": 96.2019, "ARG_OF_PERICENTER": 105.6347, "MEAN_ANOMALY": 254.5455, "EPHEMERIS_TYPE": 0, "CLASSIFICATION_TYPE": "U", "NORAD_CAT_ID": 37546, "ELEMENT_SET_NO": 999, "REV_AT_EPOCH": 65901, "BSTAR": 0.0029558541, "MEAN_MOTION_DOT": 0.00022724, "MEAN_MOTION_DDOT": 0}, "tle": {"line1": "1 37546U 93036BPB 25347.65329341  .00022724  00000+0  29559-2 0  9998", "line2": "2 37546  74.0221  96.2019 0005662 105.6347 254.5455 14.80580134659010"}}, "geometry": {"type": "Point", "coordinates": [87.1523361856594, -15.39246590569526]}}, {"type": "Feature", "properties": {"norad_id": 37959, "name": "COSMOS 2251 DEB", "group": "cosmos-2251-debris", "lat": -71.28883032388262, "lon": -7.005065189736112, "alt_km": 703.6298534732705, "timestamp": "2025-12-15T22:44:29.328252+00:00", "meta": {"OBJECT_NAME": "COSMOS 2251 DEB", "OBJECT_ID": "1993-036BPJ", "EPOCH": "2025-12-14T10:58:10.890336", "MEAN_MOTION": 14.58161119, "ECCENTRICITY": 0.00577285, "INCLINATION": 74.0113, "RA_OF_ASC_NODE": 53.671, "ARG_OF_PERICENTER": 196.0829, "MEAN_ANOMALY": 182.1338, "EPHEMERIS_TYPE": 0, "CLASSIFICATION_TYPE": "U", "NORAD_CAT_ID": 37959, "ELEMENT_SET_NO": 999, "REV_AT_EPOCH": 80152, "BSTAR": 0.00075884063, "MEAN_MOTION_DOT": 3.551e-05, "MEAN_MOTION_DDOT": 0}, "tle": {"line1": "1 37959U 93036BPJ 25348.45707049  .00003551  00000+0  75884-3 0  9990", "line2": "2 37959  74.0113  53.6710 0057728 196.0829 182.1338 14.58161119801526"}}, "geometry": {"type": "Point", "coordinates": [-7.005065189736112, -71.28883032388262]}}, {"type": "Feature", "properties": {"norad_id": 37960, "name": "COSMOS 2251 DEB", "group": "cosmos-2251-debris", "lat": -70.83260792232976, "lon": 125.95538263690685, "alt_km": 843.0836483691792, "timestamp": "2025-12-15T22:44:29.328262+00:00", "meta": {"OBJECT_NAME": "COSMOS 2251 DEB", "OBJECT_ID": "1993-036BPK", "EPOCH": "2025-12-14T06:11:46.389120", "MEAN_MOTION": 14.07861121, "ECCENTRICITY": 0.02486852, "INCLINATION": 74.058, "RA_OF_ASC_NODE": 184.231, "ARG_OF_PERICENTER": 202.5017, "MEAN_ANOMALY": 156.5067, "EPHEMERIS_TYPE": 0, "CLASSIFICATION_TYPE": "U", "NORAD_CAT_ID": 37960, "ELEMENT_SET_NO": 999, "REV_AT_EPOCH": 77427, "BSTAR": 0.00090092119, "MEAN_MOTION_DOT": 2.003e-05, "MEAN_MOTION_DDOT": 0}, "tle": {"line1": "1 37960U 93036BPK 25348.25817580  .00002003  00000+0  90092-3 0  9991", "line2": "2 37960  74.0580 184.2310 0248685 202.5017 156.5067 14.07861121774278"}}, "geometry": {"type": "Point", "coordinates": [125.95538263690685, -70.83260792232976]}}, {"type": "Feature", "properties": {"norad_id": 37961, "name": "COSMOS 2251 DEB", "group": "cosmos-2251-debris", "lat": -17.448313466672598, "lon": 125.84770473450932, "alt_km": 723.0176942934722, "timestamp": "2025-12-15T22:44:29.328272+00:00", "meta": {"OBJECT_NAME": "COSMOS 2251 DEB", "OBJECT_ID": "1993-036BPL", "EPOCH": "2025-12-13T03:18:27.462240", "MEAN_MOTION": 14.57979799, "ECCENTRICITY": 0.00406759, "INCLINATION": 74.0407, "RA_OF_ASC_NODE": 136.3488, "ARG_OF_PERICENTER": 216.8805, "MEAN_ANOMALY": 142.9561, "EPHEMERIS_TYPE": 0, "CLASSIFICATION_TYPE": "U", "NORAD_CAT_ID": 37961, "ELEMENT_SET_NO": 999, "REV_AT_EPOCH": 80071, "BSTAR": 0.001729191, "MEAN_MOTION_DOT": 8.011e-05, "MEAN_MOTION_DDOT": 0}, "tle": {"line1": "1 37961U 93036BPL 25347.13781785  .00008011  00000+0  17292-2 0  9990", "line2": "2 37961  74.0407 136.3488 0040675 216.8805 142.9561 14.57979799800716"}}, "geometry": {"type": "Point", "coordinates": [125.84770473450932, -17.448313466672598]}}, {"type": "Feature", "properties": {"norad_id": 37966, "name": "COSMOS 2251 DEB", "group": "cosmos-2251-debris", "lat": -2.2141056153505745, "lon": -136.76143502981316, "alt_km": 530.6445569551352, "timestamp": "2025-12-15T22:44:29.328282+00:00", "meta": {"OBJECT_NAME": "COSMOS 2251 DEB", "OBJECT_ID": "1993-036BPR", "EPOCH": "2025-12-13T08:51:38.453184", "MEAN_MOTION": 15.12754556, "ECCENTRICITY": 0.00088035, "INCLINATION": 73.9781, "RA_OF_ASC_NODE": 229.2381, "ARG_OF_PERICENTER": 105.8293, "MEAN_ANOMALY": 254.3871, "EPHEMERIS_TYPE": 0, "CLASSIFICATION_TYPE": "U", "NORAD_CAT_ID": 37966, "ELEMENT_SET_NO": 999, "REV_AT_EPOCH": 85352, "BSTAR": 0.0051051315, "MEAN_MOTION_DOT": 0.00090719, "MEAN_MOTION_DDOT": 0}, "tle": {"line1": "1 37966U 93036BPR 25347.36919506  .00090719  00000+0  51051-2 0  9991", "line2": "2 37966  73.9781 229.2381 0008803 105.8293 254.3871 15.12754556853526"}}, "geometry": {"type": "Point", "coordinates": [-136.76143502981316, -2.2141056153505745]}}]}